ATLAS CENTAUR 2         
1 00694U 63047A   26186.23227190  .00001511  00000+0  17404-3 0  9994
2 00694  30.3524 258.4799 0545736  36.6513 327.0175 14.12553290148253
THOR AGENA D R/B        
1 00733U 64002A   26186.08804167  .00000245  00000+0  10469-3 0  9995
2 00733  99.1152 205.7855 0031764 277.0111  82.7460 14.34073394255124
SL-3 R/B                
1 00877U 64053B   26185.84830058  .00000290  00000+0  80073-4 0  9990
2 00877  65.0780 347.7276 0080580 255.5772 103.6375 14.61435906283917
SL-8 R/B                
1 02802U 67045B   26186.21613985  .00000416  00000+0  12233-3 0  9996
2 02802  74.0110 128.5864 0063011 108.0390 252.7647 14.45692040106008
SL-8 R/B                
1 03230U 68040B   26186.21099440  .00003697  00000+0  26932-3 0  9997
2 03230  74.0302  73.4281 0025512 223.4797 136.4381 15.03908257107677
OAO 2                   
1 03597U 68110A   26185.78377211  .00000288  00000+0  82749-4 0  9999
2 03597  34.9946 331.4275 0004973  51.1952 308.9182 14.47359487 36071
ISIS 1                  
1 03669U 69009A   26186.24840881  .00000106  00000+0  72142-4 0  9992
2 03669  88.4443 142.4158 1706886 211.7375 136.8750 11.30435807361815
SERT 2                  
1 04327U 70009A   26186.24313609  .00000014  00000+0  75147-4 0  9995
2 04327  99.2840 122.9872 0004156 217.0194 307.4666 13.58740549795853
SL-3 R/B                
1 05118U 71028B   26186.21310515  .00080086  00000+0  61549-3 0  9993
2 05118  81.2315 265.7574 0014358 217.0947 142.9321 15.71615236  7077
ASTEX 1                 
1 05560U 71089A   26186.00433019  .00000583  00000+0  14784-3 0  9996
2 05560  92.7000 189.5937 0017461  53.7335 306.5481 14.50866689879311
SL-8 R/B                
1 05730U 71119B   26185.94663610  .00007914  00000+0  40371-3 0  9999
2 05730  73.8892 316.1686 0543241 258.5674  95.4019 14.39641602672358
OAO 3 (COPERNICUS)      
1 06153U 72065A   26185.89746633  .00000407  00000+0  87836-4 0  9999
2 06153  35.0069 349.4930 0006194  33.8557 122.2564 14.60071081863336
ATLAS CENTAUR R/B       
1 06155U 72065B   26185.77445550  .00001316  00000+0  18103-3 0  9992
2 06155  35.0029 339.4352 0034285 276.1441  83.5354 14.77956073858596
SL-8 R/B                
1 08459U 75112B   26186.12558705  .00000246  00000+0  89445-4 0  9993
2 08459  74.0595 162.8724 0016559 227.4348 132.5410 14.38254565648753
SL-3 R/B                
1 10114U 77057B   26186.18676308  .00016114  00000+0  30702-3 0  9992
2 10114  97.5850   3.6041 0006198 205.8219 154.2723 15.48258503686496
SEASAT 1                
1 10967U 78064A   26185.94656947  .00000343  00000+0  13415-3 0  9996
2 10967 108.0184  11.5699 0001319 245.6555 114.4453 14.46256215523462
SL-14 R/B               
1 11267U 79011B   26185.94772232  .00000729  00000+0  69168-4 0  9994
2 11267  82.5246 345.2975 0016694  30.6748 329.5444 14.92031964546268
SL-8 R/B                
1 11574U 79089B   26185.54411171  .00000289  00000+0  95291-4 0  9995
2 11574  74.0677 234.7271 0015564  12.4542 347.6995 14.42411966452952
SL-14 R/B               
1 11672U 80005B   26186.03805128  .00000627  00000+0  60632-4 0  9995
2 11672  82.5132 195.9067 0016957 128.5028 231.7715 14.91044284493976
SL-8 R/B                
1 12139U 81003B   26185.99198694  .00026525  00000+0  63455-3 0  9990
2 12139  82.9365 181.2230 0250517 129.1084 233.2721 15.14798131332416
SL-3 R/B                
1 12465U 81046B   26186.26617760  .00018295  00000+0  39026-3 0  9992
2 12465  81.2307 148.2843 0016493 334.5200  25.5229 15.44612935456562
SL-3 R/B                
1 12904U 81103B   26186.19496306  .00006315  00000+0  27157-3 0  9999
2 12904  81.1575  75.4755 0011524 248.4464 111.5540 15.22436520991100
SL-3 R/B                
1 13068U 82013B   26186.16083609  .00006379  00000+0  26901-3 0  9993
2 13068  81.1734  22.9571 0022610 140.8583 219.4290 15.22910969422223
SL-3 R/B                
1 13154U 82039B   26186.18443289  .00004415  00000+0  26325-3 0  9992
2 13154  81.1493  80.2942 0027573 293.5079  66.3249 15.10657274399375
SL-3 R/B                
1 13403U 82079B   26186.15006481  .00006999  00000+0  26923-3 0  9992
2 13403  81.1449  54.2374 0024782 126.0738 234.2796 15.25948814395608
SL-14 R/B               
1 13553U 82092B   26186.10578235  .00000503  00000+0  53686-4 0  9991
2 13553  82.5670  31.5344 0018742 271.8672 237.9008 14.86760537346371
SL-3 R/B                
1 13819U 83010B   26186.07671363  .00021539  00000+0  38571-3 0  9996
2 13819  81.0994 217.9245 0014172   0.8389 359.2878 15.49713315376106
SL-3 R/B                
1 14208U 83075B   26186.19005059  .00016130  00000+0  39200-3 0  9997
2 14208  97.6105 195.4332 0021306 163.5929 196.6012 15.40838883348232
COSMOS 1536             
1 14699U 84013A   26186.00822140  .00010550  00000+0  41729-3 0  9991
2 14699  82.5451 351.0910 0013008 225.4486 134.5691 15.25256328290490
SL-14 R/B               
1 14820U 84027B   26185.58694886  .00000618  00000+0  67780-4 0  9998
2 14820  82.5424 135.4007 0016674 309.8897  50.0852 14.86074116264998
